<?xml version='1.0' encoding='utf-8'?>
<kml xmlns="http://www.opengis.net/kml/2.2"><Document><Schema name="iot-device-register" id="iot-device-register"><SimpleField type="string" name="device_id"><displayName>Device ID</displayName></SimpleField><SimpleField type="string" name="device_tag"><displayName>Device tag</displayName></SimpleField><SimpleField type="string" name="location_suburb"><displayName>Location suburb</displayName></SimpleField><SimpleField type="string" name="dev_site"><displayName>Site name</displayName></SimpleField><SimpleField type="string" name="device_type"><displayName>Device type</displayName></SimpleField><SimpleField type="double" name="solar_capacity_kw"><displayName>Solar Capacity(kW)</displayName></SimpleField><SimpleField type="string" name="address"><displayName>Address</displayName></SimpleField><SimpleField type="string" name="description"><displayName>Description</displayName></SimpleField></Schema></Document></kml>